OBJECT_NAME,OBJECT_ID,EPOCH,MEAN_MOTION,ECCENTRICITY,INCLINATION,RA_OF_ASC_NODE,ARG_OF_PERICENTER,MEAN_ANOMALY,EPHEMERIS_TYPE,CLASSIFICATION_TYPE,NORAD_CAT_ID,ELEMENT_SET_NO,REV_AT_EPOCH,BSTAR,MEAN_MOTION_DOT,MEAN_MOTION_DDOT
LEMUR-2-CELIJO-SB-PK,2025-276DW,2026-06-06T10:18:11.373120,14.99845445,.00088315,97.5276,228.5585,158.5528,201.6068,0,U,66781,999,2101,.73136016E-3,.9014E-4,0
LEMUR-2-FINNIAN,2025-276DX,2026-06-06T22:37:30.754848,15.00247940,.00084288,97.5258,229.2619,120.5386,239.6671,0,U,66782,999,1846,.63699853E-3,.7925E-4,0
LEMUR-2-STARLIGHT,2025-276DY,2026-06-06T03:44:11.116608,14.98925272,.00152349,97.5273,228.1699,159.8654,200.3173,0,U,66783,999,2854,.71867317E-3,.866E-4,0
LEMUR-2-TARTIFLETTE,2025-276DZ,2026-06-06T10:06:47.498112,14.98949627,.00138965,97.5274,228.4322,165.1491,195.0143,0,U,66784,999,2858,.85100158E-3,.1027E-3,0
LEMUR-2-VUKASIN,2025-276EA,2026-06-07T00:35:25.985184,15.00253929,.00062472,97.5302,229.2874,148.0964,212.0640,0,U,66785,999,2862,.60933696E-3,.7577E-4,0
LEMUR-2-HOTSPUR-TOM,2025-276EB,2026-06-07T00:20:04.536960,14.98832609,.00152909,97.5245,228.9894,159.0225,201.1629,0,U,66786,999,2860,.69277946E-3,.8326E-4,0
LEMUR-2-MYRA,2025-276EC,2026-06-06T10:54:55.456128,15.00100506,.00152999,97.5219,228.6895,177.2463,182.8848,0,U,66787,999,2860,.7117671E-3,.8844E-4,0
LEMUR-2 FIKRETDENGIZ,2026-004A,2026-06-07T06:01:36.969312,14.88253390,.00091938,97.8016,156.9628,162.3559,197.7979,0,U,67363,999,2180,.46492187E-3,.4243E-4,0
TWILIGHT-1 OBJECT B,2026-004B,2026-06-07T06:31:01.910496,14.87668705,.00092931,97.8061,157.0022,153.2430,206.9268,0,U,67364,999,2181,.27916791E-3,.2489E-4,0
LEMUR-2-MARIO-SOUSA,2026-004C,2026-06-06T13:31:44.760000,14.88430646,.00087678,97.7994,156.2825,164.4177,195.7311,0,U,67365,999,2171,.56852486E-3,.5224E-4,0
LEMUR-2-SONNENBLUME,2026-004E,2026-06-06T11:50:44.065248,14.88262544,.0008345,97.7982,156.2017,166.5825,193.5615,0,U,67367,999,2170,.36987E-3,.3364E-4,0
LEMUR-2-WOBLER,2026-004F,2026-06-07T05:28:11.869824,14.88449995,.0008786,97.8043,157.0369,153.7986,206.3677,0,U,67368,999,2181,.48994E-3,.4496E-4,0
LEMUR-2-GRAM-E-SUE,2026-004H,2026-06-06T13:06:20.279520,14.88424897,.0007274,97.7974,156.2680,166.7193,193.4216,0,U,67370,999,2171,.36097179E-3,.3295E-4,0
LEMUR-2-KATIE,2026-004AA,2026-06-06T17:54:14.359392,14.89977033,.0004712,97.8036,156.8905,114.5413,245.6296,0,U,67387,999,2175,.60813E-3,.5809E-4,0
LEMUR-2-HCS-BAZUS,2026-004AB,2026-06-07T06:46:35.698368,14.89977899,.00043348,97.8027,157.4020,108.3243,251.8447,0,U,67388,999,2183,.6506475E-3,.6219E-4,0
